STARLINK-6164           
1 57152U 23090BD  26075.83335647  .00091194  00000+0  46534-2 0  9990
2 57152  42.9999 222.2394 0002312 273.6090 123.7079 15.15711634  5810
STARLINK-5879           
1 57153U 23090BE  26075.83335647  .00088146  00000+0  56474-2 0  9998
2 57153  43.0005 210.0097 0002307 266.7790 157.8187 15.07538734  5817
STARLINK-6106           
1 57154U 23090BF  26075.83335647  .00086607  00000+0  46657-2 0  9991
2 57154  43.0008 222.2692 0002207 261.6661 121.9961 15.13819772  5810
STARLINK-6108           
1 57155U 23090BG  26075.83335647  .00086464  00000+0  49034-2 0  9995
2 57155  43.0003 222.2305 0002376 268.1927 131.0861 15.11985119  5718
STARLINK-6137           
1 57156U 23090BH  26075.83335647  .00086183  00000+0  48772-2 0  9992
2 57156  43.0003 222.2666 0002483 265.1083 119.0964 15.12062034  5665
STARLINK-5525           
1 57218U 23094A   26075.83335647 -.00001444  00000+0 -44134-4 0  9994
2 57218  43.0010 349.9355 0001227 255.3031  91.6483 15.26752258  5810
STARLINK-5520           
1 57219U 23094B   26075.85074515  .00165329  00000+0  11169-1 0  9991
2 57219  42.9999 351.7216 0001887 226.3583 133.7104 15.05127700148196
STARLINK-5880           
1 57220U 23094C   26075.83291623  .00120620  00000+0  79788-2 0  9999
2 57220  43.0012 351.5887 0001164 263.1416  96.9295 15.06165453148199
STARLINK-5875           
1 57221U 23094D   26075.83335647  .00025503  00000+0  16947-2 0  9997
2 57221  43.0006 351.7830 0000777 196.9945  84.4796 15.06737346  5817
STARLINK-5870           
1 57222U 23094E   26075.83335647 -.00001999  00000+0 -64860-4 0  9992
2 57222  43.0008 349.9544 0001408 247.2961  89.7394 15.26744410  5769
STARLINK-5519           
1 57223U 23094F   26075.83335647  .00028241  00000+0  18240-2 0  9999
2 57223  43.0009 351.7175 0001127 251.8891  56.8923 15.07742775  5813
STARLINK-5983           
1 57224U 23094G   26075.83335647 -.00003051  00000+0 -10407-3 0  9992
2 57224  43.0005 350.0230 0001272 252.0566  55.9485 15.26747670  5810
STARLINK-6294           
1 57225U 23094H   26075.83335647  .00066196  00000+0  28622-2 0  9997
2 57225  43.0004 350.5785 0001343 309.5100 121.7699 15.21600085  5767
STARLINK-6350           
1 57226U 23094J   26075.83335647  .00059753  00000+0  26134-2 0  9995
2 57226  43.0000 350.3256 0000245 239.6135 297.8854 15.21253499  5824
STARLINK-5996           
1 57227U 23094K   26075.83335647  .00027222  00000+0  18268-2 0  9991
2 57227  43.0007 351.5799 0001916 247.2295 117.8663 15.06344559  5713
STARLINK-6230           
1 57228U 23094L   26075.83335647 -.00006034  00000+0 -21541-3 0  9991
2 57228  43.0010 349.8231 0001453 252.0348 137.4462 15.26747189  5823
STARLINK-6233           
1 57229U 23094M   26075.83335647  .00064162  00000+0  27145-2 0  9991
2 57229  43.0000 350.2111 0001145 224.9755   2.1103 15.22353213  5719
STARLINK-6250           
1 57230U 23094N   26075.83335647  .00024501  00000+0  10772-2 0  9994
2 57230  43.0001 350.1390 0001283 232.0029  21.1216 15.21440962  5822
STARLINK-5840           
1 57231U 23094P   26075.83335647  .00033875  00000+0  16039-2 0  9991
2 57231  43.0005 350.0715 0001748 234.2702  48.6910 15.18754363  5717
STARLINK-5872           
1 57232U 23094Q   26075.83335647  .00030688  00000+0  14355-2 0  9990
2 57232  42.9995 350.1402 0000774 230.0603  20.5962 15.19215624  5719
STARLINK-5866           
1 57233U 23094R   26075.83335647  .00060111  00000+0  26196-2 0  9991
2 57233  43.0011 349.9460 0002120 252.4182  84.2817 15.21373588  5766
STARLINK-6368           
1 57234U 23094S   26075.83335647  .01333620  00000+0  48515-1 0  9999
2 57234  43.0007 349.8690 0002087 280.4043  86.2475 15.24381014  5819
STARLINK-6360           
1 57235U 23094T   26075.83335647  .00062050  00000+0  26912-2 0  9993
2 57235  43.0009 349.9595 0001680 255.3616  75.8929 15.21523459  5762
STARLINK-6315           
1 57236U 23094U   26075.83335647  .00015608  00000+0  86094-3 0  9999
2 57236  43.0006 338.6131 0002075 255.7389  98.0343 15.13753821  5666
STARLINK-6365           
1 57237U 23094V   26075.83335647  .00062625  00000+0  26543-2 0  9993
2 57237  43.0007 349.8848 0002152 261.2438 100.2145 15.22301339  5715
STARLINK-6334           
1 57238U 23094W   26075.83335647  .00016530  00000+0  98219-3 0  9998
2 57238  43.0002 338.7360 0002125 234.7851  64.9440 15.11044541  5813
STARLINK-6330           
1 57239U 23094X   26075.83335647  .00066934  00000+0  27666-2 0  9999
2 57239  43.0004 349.6616 0000795 294.7605 160.4716 15.23122251  5811
STARLINK-6351           
1 57240U 23094Y   26075.83335647  .00018193  00000+0  94359-3 0  9999
2 57240  43.0010 338.1792 0000683 302.2891 231.8616 15.15852593  5818
STARLINK-6349           
1 57241U 23094Z   26075.83335647  .00012693  00000+0  69940-3 0  9997
2 57241  43.0008 338.5651 0002110 252.4795 120.7084 15.13922840  5816
STARLINK-6306           
1 57242U 23094AA  26075.83335647  .00014568  00000+0  81433-3 0  9992
2 57242  43.0009 338.5911 0002023 253.4075 107.4036 15.13319898  5814
STARLINK-6346           
1 57243U 23094AB  26075.83335647  .00015641  00000+0  88429-3 0  9998
2 57243  43.0002 338.6342 0002175 258.6526  85.0895 15.12868226  5719
STARLINK-5610           
1 57244U 23094AC  26075.83335647  .00019636  00000+0  10188-2 0  9993
2 57244  43.0005 338.2592 0000445 308.3491 192.2403 15.15799619  5817
STARLINK-5587           
1 57245U 23094AD  26075.83335647  .00018040  00000+0  10811-2 0  9995
2 57245  42.9999 338.6843 0000840 258.5545  59.7952 15.10689164  5764
STARLINK-5049           
1 57246U 23094AE  26075.83335647  .00016791  00000+0  90881-3 0  9993
2 57246  42.9994 338.0544 0000751 237.0303 347.6444 15.14386679  5761
STARLINK-5039           
1 57247U 23094AF  26075.83335647  .00012555  00000+0  69693-3 0  9995
2 57247  42.9999 338.3962 0001293 282.6048 159.5200 15.13665477  5763
STARLINK-5514           
1 57248U 23094AG  26075.83335647  .00014715  00000+0  82141-3 0  9999
2 57248  43.0003 338.3436 0001855 257.2775 205.4666 15.13363319  5810
STARLINK-5517           
1 57249U 23094AH  26075.83335647  .00016637  00000+0  92786-3 0  9991
2 57249  43.0003 338.2446 0001675 253.1287 226.7179 15.13322171  5810
STARLINK-5488           
1 57250U 23094AJ  26075.83335647  .00014942  00000+0  86849-3 0  9993
2 57250  43.0003 338.2951 0001686 249.0329 233.0048 15.11899801  5718
STARLINK-5513           
1 57251U 23094AK  26075.83335647  .00018259  00000+0  99872-3 0  9999
2 57251  43.0009 338.2008 0001357 249.7903 273.2439 15.13965649  5668
STARLINK-5511           
1 57252U 23094AL  26075.83335647  .00014725  00000+0  82366-3 0  9994
2 57252  43.0010 338.1160 0000766 296.3174 262.2914 15.13288869  5714
STARLINK-5516           
1 57253U 23094AM  26075.83335647  .00014419  00000+0  80886-3 0  9990
2 57253  43.0004 338.2933 0000786 307.5574 177.3787 15.13199693  5662
STARLINK-5490           
1 57254U 23094AN  26075.83335647  .00017682  00000+0  99309-3 0  9996
2 57254  43.0002 338.0781 0000739 207.6432   6.9348 15.13037845  5818
STARLINK-5481           
1 57255U 23094AP  26075.83335647  .00016718  00000+0  93728-3 0  9995
2 57255  42.9999 338.0863 0000547 206.5763   4.5984 15.13133440  5813
STARLINK-5512           
1 57256U 23094AQ  26075.00698227  .00048027  00000+0  35096-2 0  9992
2 57256  43.0043 342.7232 0002175 287.0262  73.0342 15.02925192148228
STARLINK-5503           
1 57257U 23094AR  26075.83335647  .00013455  00000+0  79977-3 0  9992
2 57257  43.0000 338.3136 0001915 258.1351 215.4560 15.11156283  5723
STARLINK-5476           
1 57258U 23094AS  26075.83335647  .00015036  00000+0  87259-3 0  9992
2 57258  43.0005 338.1120 0000313 229.0036 330.7819 15.11953089  5815
STARLINK-5026           
1 57260U 23094AU  26075.83335647  .00018693  00000+0  10992-2 0  9996
2 57260  43.0000 338.0430 0000663 293.7247 293.9814 15.11356472  5814
STARLINK-5485           
1 57261U 23094AV  26075.83335647  .00062002  00000+0  25980-2 0  9993
2 57261  43.0012 349.9030 0002088 256.4719  98.6942 15.22693403  5764
STARLINK-5504           
1 57262U 23094AW  26075.83335647  .00015418  00000+0  89254-3 0  9998
2 57262  43.0006 338.1415 0000302 226.0172 321.7845 15.12027925  5815
STARLINK-5509           
1 57263U 23094AX  26075.83335647  .00062522  00000+0  26709-2 0  9992
2 57263  43.0012 350.0044 0001976 252.5824  59.2275 15.22035009  5767
STARLINK-5858           
1 57264U 23094AY  26075.83335647  .00018572  00000+0  11294-2 0  9992
2 57264  43.0006 338.0646 0000599 291.7594 286.4634 15.10140022  5812
STARLINK-30198          
1 57290U 23096A   26075.83335647  .00033784  00000+0  15436-2 0  9997
2 57290  42.9973 182.9842 0001578 291.7463 230.6131 15.19986855  5778
STARLINK-30239          
1 57291U 23096B   26075.83335647  .00072219  00000+0  29554-2 0  9990
2 57291  43.0012 182.6411 0001591 274.3972  32.2714 15.23425538  5775
STARLINK-30235          
1 57294U 23096E   26075.83335647  .00072060  00000+0  30207-2 0  9994
2 57294  43.0012 182.6162 0001914 270.7491  46.6965 15.22614057  5813
STARLINK-30236          
1 57300U 23096L   26075.83335647  .00064931  00000+0  27218-2 0  9998
2 57300  43.0001 182.7189 0001220 273.4666 354.9717 15.22660624  5768
STARLINK-30201          
1 57301U 23096M   26075.83335647  .00090007  00000+0  36074-2 0  9992
2 57301  43.0000 182.7600 0001457 260.2656 351.8456 15.24020361  5767
STARLINK-30233          
1 57302U 23096N   26075.83335647  .00068798  00000+0  30944-2 0  9995
2 57302  43.0010 182.5108 0001830 281.9011  68.6182 15.20235296  5715
STARLINK-30184          
1 57310U 23096W   26075.57404487 -.00004737  00000+0 -16284-3 0  9991
2 57310  43.0008 155.5837 0001474 266.5493  93.5190 15.27556993148101
STARLINK-6290           
1 57328U 23099A   26075.83335647  .00089929  00000+0  56243-2 0  9995
2 57328  43.0013 210.3840 0002072 290.1436 245.3681 15.08413397  5669
